[
    {
        "Altitude(m)": 558185.6309690714,
        "Argument of Periapsis(deg)": 0.033114955553567506,
        "Eccentricity": 0.0,
        "Inclination(deg)": 53.0,
        "Latitude(deg)": -17.762214407399394,
        "Longitude(deg)": 82.12147560371768,
        "Mean Anomaly(deg)": -22.26923566211209,
        "RAAN(deg)": 199.95071684264008,
        "Satellite Name": "Starlink Shell 1 897",
        "Satellite Number": 897,
        "Semi-Major Axis(m)": 6931778.249405717,
        "Time(s)": 950
    },
    {
        "Altitude(m)": 558036.3485187213,
        "Argument of Periapsis(deg)": 0.03346353403307874,
        "Eccentricity": 0.0,
        "Inclination(deg)": 53.0,
        "Latitude(deg)": -17.27346049804842,
        "Longitude(deg)": 82.49372778996221,
        "Mean Anomaly(deg)": -21.642404458555315,
        "RAAN(deg)": 199.95019807256264,
        "Satellite Name": "Starlink Shell 1 897",
        "Satellite Number": 897,
        "Semi-Major Axis(m)": 6931778.249405717,
        "Time(s)": 960
    },
    {
        "Altitude(m)": 557888.8234955425,
        "Argument of Periapsis(deg)": 0.03381211251258998,
        "Eccentricity": 0.0,
        "Inclination(deg)": 53.0,
        "Latitude(deg)": -16.783821703046705,
        "Longitude(deg)": 82.86381717646975,
        "Mean Anomaly(deg)": -21.01557325499865,
        "RAAN(deg)": 199.94967930248515,
        "Satellite Name": "Starlink Shell 1 897",
        "Satellite Number": 897,
        "Semi-Major Axis(m)": 6931778.249405717,
        "Time(s)": 970
    },
    {
        "Altitude(m)": 557743.1050886216,
        "Argument of Periapsis(deg)": 0.034160690992101214,
        "Eccentricity": 0.0,
        "Inclination(deg)": 53.0,
        "Latitude(deg)": -16.293328207927065,
        "Longitude(deg)": 83.23181605221404,
        "Mean Anomaly(deg)": -20.388742051441902,
        "RAAN(deg)": 199.9491605324077,
        "Satellite Name": "Starlink Shell 1 897",
        "Satellite Number": 897,
        "Semi-Major Axis(m)": 6931778.249405717,
        "Time(s)": 980
    },
    {
        "Altitude(m)": 557599.2415336358,
        "Argument of Periapsis(deg)": 0.034509269471612446,
        "Eccentricity": 0.0,
        "Inclination(deg)": 53.0,
        "Latitude(deg)": -15.802009738126374,
        "Longitude(deg)": 83.59779634208003,
        "Mean Anomaly(deg)": -19.761910847885254,
        "RAAN(deg)": 199.94864176233023,
        "Satellite Name": "Starlink Shell 1 897",
        "Satellite Number": 897,
        "Semi-Major Axis(m)": 6931778.249405717,
        "Time(s)": 990
    }
]